NORAD_CAT_ID,OBJECT_NAME,OBJECT_TYPE,EPOCH,MEAN_MOTION,ECCENTRICITY,INCLINATION,RA_OF_ASC_NODE,ARG_OF_PERICENTER,MEAN_ANOMALY,BSTAR,MEAN_MOTION_DOT,MEAN_MOTION_DDOT,TLE_LINE0,TLE_LINE1,TLE_LINE2,SEMIMAJOR_AXIS,PERIOD,APOGEE,PERIGEE,DECAYED
52871.0,STARLINK-4207,PAYLOAD,2024-01-10 02:45:43,15.08850143,0.0001583,53.2173,318.6606,93.6329,266.4844,0.00021085,3.07e-05,0.0,0 STARLINK-4207,1 52871U 22062AT  24010.11508928  .00003070  00000-0  21085-3 0  9995,2 52871  53.2173 318.6606 0001583  93.6329 266.4844 15.08850143 86862,6917.849,95.437,540.809,538.619,0.0
52871.0,STARLINK-4207,PAYLOAD,2024-01-11 02:36:31,15.08843367,0.0001567,53.2167,314.1992,107.3561,252.7603,0.00012663,1.728e-05,0.0,0 STARLINK-4207,1 52871U 22062AT  24011.10869426  .00001728  00000-0  12663-3 0  9998,2 52871  53.2167 314.1992 0001567 107.3561 252.7603 15.08843367 87500,6917.87,95.437,540.819,538.651,0.0
52871.0,STARLINK-4207,PAYLOAD,2024-01-11 05:47:17,15.08843958,0.0001681,53.2164,313.6041,103.5476,256.5704,0.0001457,2.032e-05,0.0,0 STARLINK-4207,1 52871U 22062AT  24011.24117430  .00002032  00000-0  14570-3 0  9992,2 52871  53.2164 313.6041 0001681 103.5476 256.5704 15.08843958 87034,6917.868,95.437,540.896,538.57,0.0
52871.0,STARLINK-4207,PAYLOAD,2024-01-11 20:05:46,15.08836794,0.0001805,53.2157,310.9275,100.8113,259.3082,9.6943e-05,1.255e-05,0.0,0 STARLINK-4207,1 52871U 22062AT  24011.83733986  .00001255  00000-0  96943-4 0  9998,2 52871  53.2157 310.9275 0001805 100.8113 259.3082 15.08836794 87615,6917.89,95.438,541.004,538.507,0.0
52871.0,STARLINK-4207,PAYLOAD,2024-01-12 02:27:18,15.08847675,0.000178,53.2173,309.7376,111.8452,248.2729,6.1014e-05,6.83e-06,0.0,0 STARLINK-4207,1 52871U 22062AT  24012.10229359  .00000683  00000-0  61014-4 0  9998,2 52871  53.2173 309.7376 0001780 111.8452 248.2729 15.08847675 87650,6917.857,95.437,540.953,538.491,0.0
52871.0,STARLINK-4207,PAYLOAD,2024-01-12 19:56:33,15.08844119,0.0001564,53.2178,306.4709,87.4022,272.7149,0.00018881,2.719e-05,0.0,0 STARLINK-4207,1 52871U 22062AT  24012.83093771  .00002719  00000-0  18881-3 0  9990,2 52871  53.2178 306.4709 0001564  87.4022 272.7149 15.08844119 87760,6917.868,95.437,540.815,538.651,0.0
52871.0,STARLINK-4207,PAYLOAD,2024-01-13 02:18:05,15.08850792,0.000165,53.2178,305.2812,90.8191,269.299,0.00028879,4.312e-05,0.0,0 STARLINK-4207,1 52871U 22062AT  24013.09589476  .00004312  00000-0  28879-3 0  9990,2 52871  53.2178 305.2812 0001650  90.8191 269.2990 15.08850792 87313,6917.847,95.437,540.854,538.571,0.0
52871.0,STARLINK-4207,PAYLOAD,2024-01-14 00:33:29,15.08839746,0.000157,53.2183,301.1187,98.4269,261.6901,4.8474e-06,-2.11e-06,0.0,0 STARLINK-4207,1 52871U 22062AT  24014.02325809 -.00000211  00000-0  48474-5 0  9992,2 52871  53.2183 301.1187 0001570  98.4269 261.6901 15.08839746 87943,6917.881,95.438,540.832,538.66,0.0
52871.0,STARLINK-4207,PAYLOAD,2024-01-14 22:48:53,15.08847141,0.0001676,53.2179,296.9535,112.4211,247.6959,0.00013392,1.844e-05,0.0,0 STARLINK-4207,1 52871U 22062AT  24014.95061487  .00001844  00000-0  13392-3 0  9994,2 52871  53.2179 296.9535 0001676 112.4211 247.6959 15.08847141 87593,6917.859,95.437,540.883,538.564,0.0
52871.0,STARLINK-4207,PAYLOAD,2024-01-15 03:35:02,15.0885578,0.000173,53.2182,296.0624,109.5441,250.5738,0.00033209,5.003e-05,0.0,0 STARLINK-4207,1 52871U 22062AT  24015.14933192  .00005003  00000-0  33209-3 0  9997,2 52871  53.2182 296.0624 0001730 109.5441 250.5738 15.08855780 88115,6917.832,95.437,540.894,538.5,0.0
52871.0,STARLINK-4207,PAYLOAD,2024-01-16 03:25:50,15.08835347,0.0001556,53.2174,291.5985,92.9241,267.1929,8.3398e-05,1.039e-05,0.0,0 STARLINK-4207,1 52871U 22062AT  24016.14294386  .00001039  00000-0  83398-4 0  9993,2 52871  53.2174 291.5985 0001556  92.9241 267.1929 15.08835347 88264,6917.895,95.438,540.836,538.683,0.0
52871.0,STARLINK-4207,PAYLOAD,2024-01-16 22:30:28,15.0884295,0.0001359,53.2157,288.0315,83.961,276.1537,0.00044178,6.751e-05,0.0,0 STARLINK-4207,1 52871U 22062AT  24016.93782445  .00006751  00000-0  44178-3 0  9996,2 52871  53.2157 288.0315 0001359  83.9610 276.1537 15.08842950 87895,6917.871,95.437,540.677,538.796,0.0
52871.0,STARLINK-4207,PAYLOAD,2024-01-17 01:41:14,15.08851425,0.0001505,53.2162,287.4364,84.2991,275.8173,0.00065607,0.00010172,0.0,0 STARLINK-4207,1 52871U 22062AT  24017.07030274  .00010172  00000-0  65607-3 0  9990,2 52871  53.2162 287.4364 0001505  84.2991 275.8173 15.08851425 88404,6917.845,95.437,540.752,538.669,0.0
52871.0,STARLINK-4207,PAYLOAD,2024-01-17 22:21:15,15.08844054,0.000134,53.2155,283.5699,106.6628,253.4512,0.00025088,3.708e-05,0.0,0 STARLINK-4207,1 52871U 22062AT  24017.93142371  .00003708  00000-0  25088-3 0  9993,2 52871  53.2155 283.5699 0001340 106.6628 253.4512 15.08844054 88046,6917.868,95.437,540.66,538.806,0.0
52871.0,STARLINK-4207,PAYLOAD,2024-01-17 23:56:38,15.08845627,0.0001364,53.2154,283.2728,101.7392,258.3753,0.00031233,4.687e-05,0.0,0 STARLINK-4207,1 52871U 22062AT  24017.99766380  .00004687  00000-0  31233-3 0  9997,2 52871  53.2154 283.2728 0001364 101.7392 258.3753 15.08845627 88548,6917.863,95.437,540.672,538.785,0.0
52871.0,STARLINK-4207,PAYLOAD,2024-01-18 22:12:02,15.08850428,0.0001467,53.2159,279.1109,80.3368,279.779,0.00021713,3.17e-05,0.0,0 STARLINK-4207,1 52871U 22062AT  24018.92502359  .00003170  00000-0  21713-3 0  9993,2 52871  53.2159 279.1109 0001467  80.3368 279.7790 15.08850428 88193,6917.849,95.437,540.728,538.699,0.0
52871.0,STARLINK-4207,PAYLOAD,2024-01-19 02:58:11,15.08852642,0.0001526,53.2162,278.2175,90.0528,270.0639,0.00057594,8.893e-05,0.0,0 STARLINK-4207,1 52871U 22062AT  24019.12374352  .00008893  00000-0  57594-3 0  9999,2 52871  53.2162 278.2175 0001526  90.0528 270.0639 15.08852642 88716,6917.842,95.437,540.762,538.651,0.0
52871.0,STARLINK-4207,PAYLOAD,2024-01-19 22:02:49,15.08842942,0.0001425,53.2158,274.6528,67.0947,293.0196,0.00016198,2.291e-05,0.0,0 STARLINK-4207,1 52871U 22062AT  24019.91862716  .00002291  00000-0  16198-3 0  9993,2 52871  53.2158 274.6528 0001425  67.0947 293.0196 15.08842942 88344,6917.871,95.437,540.722,538.751,0.0
52871.0,STARLINK-4207,PAYLOAD,2024-01-20 17:07:27,15.08839204,0.000135,53.2181,271.0819,60.8347,299.278,0.00012338,1.676e-05,0.0,0 STARLINK-4207,1 52871U 22062AT  24020.71351008  .00001676  00000-0  12338-3 0  9998,2 52871  53.2181 271.0819 0001350  60.8347 299.2780 15.08839204 88957,6917.883,95.438,540.682,538.814,0.0
52871.0,STARLINK-4207,PAYLOAD,2024-01-20 21:53:36,15.08837724,0.0001301,53.217,270.1903,70.6899,289.4234,9.3609e-05,1.202e-05,0.0,0 STARLINK-4207,1 52871U 22062AT  24020.91223056  .00001202  00000-0  93609-4 0  9997,2 52871  53.2170 270.1903 0001301  70.6899 289.4234 15.08837724 88495,6917.887,95.438,540.652,538.852,0.0
52871.0,STARLINK-4207,PAYLOAD,2024-01-21 02:39:46,15.08840144,0.0001298,53.2173,269.2972,75.6587,284.4549,0.0001048,1.38e-05,0.0,0 STARLINK-4207,1 52871U 22062AT  24021.11094981  .00001380  00000-0  10480-3 0  9995,2 52871  53.2173 269.2972 0001298  75.6587 284.4549 15.08840144 88525,6917.88,95.438,540.643,538.847,0.0
52871.0,STARLINK-4207,PAYLOAD,2024-01-21 20:09:00,15.08843866,0.0001237,53.2167,266.0267,76.5706,283.5424,0.00021888,3.198e-05,0.0,0 STARLINK-4207,1 52871U 22062AT  24021.83958916  .00003198  00000-0  21888-3 0  9994,2 52871  53.2167 266.0267 0001237  76.5706 283.5424 15.08843866 89129,6917.869,95.437,540.589,538.878,0.0
52871.0,STARLINK-4207,PAYLOAD,2024-01-21 21:44:23,15.088468,0.0001239,53.2162,265.7294,81.9626,278.1507,0.00026063,3.863e-05,0.0,0 STARLINK-4207,1 52871U 22062AT  24021.90582750  .00003863  00000-0  26063-3 0  9990,2 52871  53.2162 265.7294 0001239  81.9626 278.1507 15.08846800 88642,6917.86,95.437,540.582,538.867,0.0
52871.0,STARLINK-4207,PAYLOAD,2024-01-22 00:55:09,15.08852806,0.0001255,53.2163,265.1342,81.7882,278.3252,0.00035595,5.384e-05,0.0,0 STARLINK-4207,1 52871U 22062AT  24022.03830469  .00005384  00000-0  35595-3 0  9998,2 52871  53.2163 265.1342 0001255  81.7882 278.3252 15.08852806 89150,6917.841,95.437,540.574,538.838,0.0
52871.0,STARLINK-4207,PAYLOAD,2024-01-22 19:59:47,15.08837857,0.0001335,53.2155,261.5658,96.1157,263.9987,5.1051e-05,5.25e-06,0.0,0 STARLINK-4207,1 52871U 22062AT  24022.83319154  .00000525  00000-0  51051-4 0  9997,2 52871  53.2155 261.5658 0001335  96.1157 263.9987 15.08837857 89272,6917.887,95.438,540.675,538.828,0.0
52871.0,STARLINK-4207,PAYLOAD,2024-01-22 21:35:10,15.08838994,0.0001368,53.2154,261.2685,93.5392,266.5756,7.1783e-05,8.55e-06,0.0,0 STARLINK-4207,1 52871U 22062AT  24022.89943124  .00000855  00000-0  71783-4 0  9993,2 52871  53.2154 261.2685 0001368  93.5392 266.5756 15.08838994 88798,6917.883,95.438,540.695,538.802,0.0
52871.0,STARLINK-4207,PAYLOAD,2024-01-22 23:10:34,15.08840441,0.0001387,53.2158,260.9713,82.2093,277.9057,0.00010571,1.395e-05,0.0,0 STARLINK-4207,1 52871U 22062AT  24022.96567152  .00001395  00000-0  10571-3 0  9991,2 52871  53.2158 260.9713 0001387  82.2093 277.9057 15.08840441 88806,6917.879,95.438,540.704,538.785,0.0
52871.0,STARLINK-4207,PAYLOAD,2024-01-23 23:01:20,15.08853843,0.0001466,53.2154,256.5105,82.751,277.3649,0.0003935,5.982e-05,0.0,0 STARLINK-4207,1 52871U 22062AT  24023.95926586  .00005982  00000-0  39350-3 0  9993,2 52871  53.2154 256.5105 0001466  82.7510 277.3649 15.08853843 88952,6917.838,95.437,540.717,538.689,0.0
52871.0,STARLINK-4207,PAYLOAD,2024-01-24 19:41:21,15.08842377,0.0001478,53.2152,252.6449,84.8453,275.2708,0.00017609,2.516e-05,0.0,0 STARLINK-4207,1 52871U 22062AT  24024.82039189  .00002516  00000-0  17609-3 0  9997,2 52871  53.2152 252.6449 0001478  84.8453 275.2708 15.08842377 89572,6917.873,95.437,540.761,538.716,0.0
52871.0,STARLINK-4207,PAYLOAD,2024-01-24 21:16:44,15.08840057,0.0001399,53.215,252.3476,99.4766,260.6384,0.00011123,1.483e-05,0.0,0 STARLINK-4207,1 52871U 22062AT  24024.88663067  .00001483  00000-0  11123-3 0  9998,2 52871  53.2150 252.3476 0001399  99.4766 260.6384 15.08840057 89096,6917.88,95.438,540.713,538.777,0.0
